{
"type": "FeatureCollection",
"name": "fort_mso",
"crs": { "type": "name", "properties": { "name": "urn:ogc:def:crs:OGC:1.3:CRS84" } },
"features": [
{ "type": "Feature", "properties": { "element": "way", "id": 111876397, "leisure": "park", "name": "McCormick Park", "sport": null, "access": null, "manufacturer": null, "surface": null, "amenity": null, "ele": null, "gnis:feature_id": "787017", "alt_name": null, "website": null, "brand": null, "brand:wikidata": null, "hoops": null, "addr:city": null, "addr:housenumber": null, "addr:postcode": null, "addr:state": null, "addr:street": null, "boundary": null, "operator": null, "operator:short": null, "operator:type": null, "operator:wikidata": null, "protect_class": null, "protection_title": null, "wikidata": null, "wikipedia": null, "building": null, "phone": null, "lit": null, "dog": null, "source": null, "wheelchair": null, "covered": null, "fee": null, "indoor": null, "building:part": null, "short_name": null, "name_1": null, "barrier": null, "description": null, "source:start_date": null, "start_date": null, "heritage": null, "heritage:operator": null, "nrhp:criteria": null, "nrhp:inscription_date": null, "nrhp:nhl": null, "ref:nrhp": null, "religion": null, "ref": null, "courts": null, "park": null, "not:brand:wikidata": null, "tourism": null, "type": null, "addr:country": null, "isced:level": null, "landuse": null, "nohousenumber": null }, "geometry": { "type": "Polygon", "coordinates": [ [ [ -114.0051161, 46.8744617 ], [ -114.0046581, 46.8743653 ], [ -114.0042569, 46.8742309 ], [ -114.0036665, 46.873983600000017 ], [ -114.0033679, 46.8738586 ], [ -114.0032624, 46.873786 ], [ -114.0024755, 46.8732442 ], [ -114.0021808, 46.8728457 ], [ -114.0018275, 46.872103299999978 ], [ -114.001346, 46.8713915 ], [ -114.0014476, 46.8713518 ], [ -114.0017262, 46.87118370000001 ], [ -114.002021, 46.8710421 ], [ -114.0022968, 46.8708856 ], [ -114.0026769, 46.8706107 ], [ -114.0028075, 46.8706074 ], [ -114.0028418, 46.870624700000015 ], [ -114.0031366, 46.8707728 ], [ -114.0035286, 46.8709548 ], [ -114.0044215, 46.8712013 ], [ -114.0050313, 46.87137 ], [ -114.006776, 46.8717886 ], [ -114.0063445, 46.8724585 ], [ -114.0054466, 46.8739383 ], [ -114.0051161, 46.8744617 ] ] ] } },
{ "type": "Feature", "properties": { "element": "way", "id": 112543194, "leisure": "park", "name": "Little McCormick Park", "sport": null, "access": null, "manufacturer": null, "surface": null, "amenity": null, "ele": null, "gnis:feature_id": "1781185", "alt_name": null, "website": "http://www.ci.missoula.mt.us/Facilities/Facility/Details/Little-McCormick-26", "brand": null, "brand:wikidata": null, "hoops": null, "addr:city": "Missoula", "addr:housenumber": "711", "addr:postcode": "59801", "addr:state": "MT", "addr:street": "Toole Avenue", "boundary": null, "operator": "City of Missoula", "operator:short": null, "operator:type": null, "operator:wikidata": null, "protect_class": null, "protection_title": null, "wikidata": null, "wikipedia": null, "building": null, "phone": null, "lit": null, "dog": "leashed", "source": null, "wheelchair": null, "covered": null, "fee": null, "indoor": null, "building:part": null, "short_name": null, "name_1": null, "barrier": null, "description": null, "source:start_date": null, "start_date": null, "heritage": null, "heritage:operator": null, "nrhp:criteria": null, "nrhp:inscription_date": null, "nrhp:nhl": null, "ref:nrhp": null, "religion": null, "ref": null, "courts": null, "park": null, "not:brand:wikidata": null, "tourism": null, "type": null, "addr:country": null, "isced:level": null, "landuse": null, "nohousenumber": null }, "geometry": { "type": "Polygon", "coordinates": [ [ [ -114.0015924, 46.8779485 ], [ -114.0015931, 46.8779403 ], [ -114.0015903, 46.877932500000014 ], [ -114.0015867, 46.8779259 ], [ -114.001582, 46.877919299999981 ], [ -114.0015763, 46.8779132 ], [ -114.001568, 46.8779078 ], [ -114.001558800000012, 46.8779024 ], [ -114.001548200000016, 46.8778981 ], [ -114.0012557, 46.8778149 ], [ -114.0001129, 46.877468 ], [ -114.00010930000002, 46.87746760000001 ], [ -114.000101, 46.8774667 ], [ -114.000089, 46.877466600000012 ], [ -114.0000777, 46.87747 ], [ -114.000068700000014, 46.8774755 ], [ -114.0000469, 46.877508 ], [ -113.9997743, 46.8779158 ], [ -113.9997723, 46.8779256 ], [ -113.9997753, 46.8779347 ], [ -113.9997778, 46.877939200000014 ], [ -113.9997803, 46.8779436 ], [ -113.999789, 46.877951 ], [ -113.9997934, 46.87795340000001 ], [ -113.9998049, 46.8779596 ], [ -113.9998235, 46.8779657 ], [ -113.9998422, 46.877971 ], [ -113.9998626, 46.8779736 ], [ -114.0015261, 46.877971600000016 ], [ -114.0015371, 46.8779716 ], [ -114.0015481, 46.8779702 ], [ -114.0015585, 46.8779684 ], [ -114.0015677, 46.877966 ], [ -114.0015746, 46.87796340000002 ], [ -114.001581300000012, 46.877959600000011 ], [ -114.0015876, 46.8779544 ], [ -114.0015924, 46.8779485 ] ] ] } },
{ "type": "Feature", "properties": { "element": "way", "id": 603932847, "leisure": "park", "name": "Fort Missoula Regional Park", "sport": null, "access": null, "manufacturer": null, "surface": null, "amenity": null, "ele": null, "gnis:feature_id": null, "alt_name": null, "website": null, "brand": null, "brand:wikidata": null, "hoops": null, "addr:city": null, "addr:housenumber": null, "addr:postcode": null, "addr:state": null, "addr:street": null, "boundary": null, "operator": null, "operator:short": null, "operator:type": null, "operator:wikidata": null, "protect_class": null, "protection_title": null, "wikidata": null, "wikipedia": null, "building": null, "phone": null, "lit": null, "dog": null, "source": null, "wheelchair": null, "covered": null, "fee": null, "indoor": null, "building:part": null, "short_name": null, "name_1": "Fort Missoula Park", "barrier": null, "description": null, "source:start_date": null, "start_date": null, "heritage": null, "heritage:operator": null, "nrhp:criteria": null, "nrhp:inscription_date": null, "nrhp:nhl": null, "ref:nrhp": null, "religion": null, "ref": null, "courts": null, "park": null, "not:brand:wikidata": null, "tourism": null, "type": null, "addr:country": null, "isced:level": null, "landuse": null, "nohousenumber": null }, "geometry": { "type": "Polygon", "coordinates": [ [ [ -114.055386900000016, 46.8486755 ], [ -114.0554141, 46.845129 ], [ -114.0578355, 46.845010900000013 ], [ -114.0579196, 46.8452646 ], [ -114.058038, 46.8455561 ], [ -114.0583163, 46.8460635 ], [ -114.0584517, 46.846538 ], [ -114.0587718, 46.8464999 ], [ -114.0590433, 46.846490300000013 ], [ -114.059377900000015, 46.8465576 ], [ -114.0595264, 46.8466753 ], [ -114.0599147, 46.846459 ], [ -114.0601023, 46.8464364 ], [ -114.0601389, 46.846368200000015 ], [ -114.0602034, 46.8461882 ], [ -114.0605991, 46.8458932 ], [ -114.0610554, 46.8456499 ], [ -114.0614689, 46.845438799999989 ], [ -114.0617273, 46.8452576 ], [ -114.0618529, 46.8451723 ], [ -114.061947, 46.8450835 ], [ -114.0620779, 46.8449326 ], [ -114.0622264, 46.8447111 ], [ -114.0623115, 46.8445534 ], [ -114.0623926, 46.844413 ], [ -114.0625, 46.844211 ], [ -114.0602825, 46.843837900000011 ], [ -114.0585987, 46.8433964 ], [ -114.0583465, 46.844007799999986 ], [ -114.0574425, 46.843796600000012 ], [ -114.0565458, 46.8433714 ], [ -114.055927800000021, 46.8427662 ], [ -114.0557494, 46.84219550000001 ], [ -114.0552502, 46.8421555 ], [ -114.0546047, 46.8422244 ], [ -114.0540901, 46.8423606 ], [ -114.0541049, 46.842628100000013 ], [ -114.0545754, 46.8426394 ], [ -114.05460770000002, 46.8427388 ], [ -114.0552925, 46.8427331 ], [ -114.0552991, 46.8433887 ], [ -114.0534953, 46.843385400000017 ], [ -114.0529484, 46.842848700000012 ], [ -114.0525914, 46.8430092 ], [ -114.0526735, 46.8431462 ], [ -114.0526359, 46.8434154 ], [ -114.0522282, 46.8442447 ], [ -114.05164640000001, 46.844246299999988 ], [ -114.0514058, 46.844247 ], [ -114.0513316, 46.844247200000012 ], [ -114.051264, 46.8442474 ], [ -114.051261, 46.8450135 ], [ -114.0512549, 46.8465469 ], [ -114.049951800000017, 46.8465462 ], [ -114.0499886, 46.848696300000015 ], [ -114.055386900000016, 46.8486755 ] ] ] } }
]
}
